ATLAS CENTAUR R/B       
1 06155U 72065B   25341.79394800  .00002480  00000+0  34285-3 0  9990
2 06155  35.0003 124.1681 0034436 316.3844  43.4136 14.77388346827663
SL-8 R/B                
1 08459U 75112B   25341.96121541  .00000445  00000+0  15521-3 0  9995
2 08459  74.0595 187.6477 0016530 299.5153  60.4352 14.38140300618680
SL-3 R/B                
1 10114U 77057B   25341.95664430  .00015398  00000+0  35362-3 0  9992
2 10114  97.5685 145.0991 0006377 252.7671 107.2879 15.42774588654179
SEASAT 1                
1 10967U 78064A   25341.77071332  .00000912  00000+0  29371-3 0  9999
2 10967 108.0107 292.6092 0001735 249.7106 110.3853 14.46053579493222
SL-14 R/B               
1 11267U 79011B   25341.95854853  .00000917  00000+0  88342-4 0  9992
2 11267  82.5239 183.5788 0016348   9.3531 350.7990 14.91760633515106
SL-8 R/B                
1 11574U 79089B   25341.91153361  .00000532  00000+0  16915-3 0  9999
2 11574  74.0693 260.9148 0014434  97.4040 262.8758 14.42278372422870
SL-14 R/B               
1 11672U 80005B   25341.64290425  .00001078  00000+0  10680-3 0  9990
2 11672  82.5154  34.5331 0017250 108.9488 251.3602 14.90783077462777
SL-8 R/B                
1 12139U 81003B   25341.82378012  .00024641  00000+0  65513-3 0  9993
2 12139  82.9281  14.7279 0280309 137.1481 225.1974 15.06831805300825
SL-3 R/B                
1 12465U 81046B   25341.94973038  .00013407  00000+0  33900-3 0  9997
2 12465  81.2331  39.6676 0019215 341.3817  18.6719 15.39461941424308
SL-3 R/B                
1 12904U 81103B   25341.98668131  .00007798  00000+0  35884-3 0  9997
2 12904  81.1589 320.9199 0011337 231.4228 128.5988 15.20143641959292
SL-3 R/B                
1 13068U 82013B   25341.90692391  .00005705  00000+0  25411-3 0  9998
2 13068  81.1752 268.2654 0023873 126.1525 234.1920 15.21016036390392
SL-3 R/B                
1 13154U 82039B   25341.93289392  .00004313  00000+0  26518-3 0  9991
2 13154  81.1729 321.6263 0029970 268.6590  91.1201 15.09480843367798
