CCSDS_OMM_VERS = 2.0
CREATION_DATE  = 
ORIGINATOR     = 

OBJECT_NAME    = ATLAS CENTAUR R/B
OBJECT_ID      = 1972-065B
CENTER_NAME    = EARTH
REF_FRAME      = TEME
TIME_SYSTEM    = UTC
MEAN_ELEMENT_THEORY = SGP/SGP4

EPOCH          = 2025-12-07T19:03:17.107200
MEAN_MOTION    = 14.77388346
ECCENTRICITY   = .00344368
INCLINATION    = 35.0003
RA_OF_ASC_NODE = 124.1681
ARG_OF_PERICENTER = 316.3844
MEAN_ANOMALY   = 43.4136

EPHEMERIS_TYPE = 0
CLASSIFICATION_TYPE = U
NORAD_CAT_ID   = 6155
ELEMENT_SET_NO = 999
REV_AT_EPOCH   = 82766
BSTAR          = .34284971E-3
MEAN_MOTION_DOT = .248E-4
MEAN_MOTION_DDOT = 0

CCSDS_OMM_VERS = 2.0
CREATION_DATE  = 
ORIGINATOR     = 

OBJECT_NAME    = SL-8 R/B
OBJECT_ID      = 1975-112B
CENTER_NAME    = EARTH
REF_FRAME      = TEME
TIME_SYSTEM    = UTC
MEAN_ELEMENT_THEORY = SGP/SGP4

EPOCH          = 2025-12-07T23:04:09.011424
MEAN_MOTION    = 14.38140300
ECCENTRICITY   = .00165301
INCLINATION    = 74.0595
RA_OF_ASC_NODE = 187.6477
ARG_OF_PERICENTER = 299.5153
MEAN_ANOMALY   = 60.4352

EPHEMERIS_TYPE = 0
CLASSIFICATION_TYPE = U
NORAD_CAT_ID   = 8459
ELEMENT_SET_NO = 999
REV_AT_EPOCH   = 61868
BSTAR          = .1552102E-3
MEAN_MOTION_DOT = .445E-5
MEAN_MOTION_DDOT = 0

CCSDS_OMM_VERS = 2.0
CREATION_DATE  = 
ORIGINATOR     = 

OBJECT_NAME    = SL-3 R/B
OBJECT_ID      = 1977-057B
CENTER_NAME    = EARTH
REF_FRAME      = TEME
TIME_SYSTEM    = UTC
MEAN_ELEMENT_THEORY = SGP/SGP4

EPOCH          = 2025-12-07T22:57:34.067520
MEAN_MOTION    = 15.42774588
ECCENTRICITY   = .0006377
INCLINATION    = 97.5685
RA_OF_ASC_NODE = 145.0991
ARG_OF_PERICENTER = 252.7671
MEAN_ANOMALY   = 107.2879

EPHEMERIS_TYPE = 0
CLASSIFICATION_TYPE = U
NORAD_CAT_ID   = 10114
ELEMENT_SET_NO = 999
REV_AT_EPOCH   = 65417
BSTAR          = .35361993E-3
MEAN_MOTION_DOT = .15398E-3
MEAN_MOTION_DDOT = 0

CCSDS_OMM_VERS = 2.0
CREATION_DATE  = 
ORIGINATOR     = 

OBJECT_NAME    = SEASAT 1
OBJECT_ID      = 1978-064A
CENTER_NAME    = EARTH
REF_FRAME      = TEME
TIME_SYSTEM    = UTC
MEAN_ELEMENT_THEORY = SGP/SGP4

EPOCH          = 2025-12-07T18:29:49.630848
MEAN_MOTION    = 14.46053579
ECCENTRICITY   = .00017359
INCLINATION    = 108.0107
RA_OF_ASC_NODE = 292.6092
ARG_OF_PERICENTER = 249.7106
MEAN_ANOMALY   = 110.3853

EPHEMERIS_TYPE = 0
CLASSIFICATION_TYPE = U
NORAD_CAT_ID   = 10967
ELEMENT_SET_NO = 999
REV_AT_EPOCH   = 49322
BSTAR          = .29370525E-3
MEAN_MOTION_DOT = .912E-5
MEAN_MOTION_DDOT = 0

CCSDS_OMM_VERS = 2.0
CREATION_DATE  = 
ORIGINATOR     = 

OBJECT_NAME    = SL-14 R/B
OBJECT_ID      = 1979-011B
CENTER_NAME    = EARTH
REF_FRAME      = TEME
TIME_SYSTEM    = UTC
MEAN_ELEMENT_THEORY = SGP/SGP4

EPOCH          = 2025-12-07T23:00:18.592992
MEAN_MOTION    = 14.91760633
ECCENTRICITY   = .00163484
INCLINATION    = 82.5239
RA_OF_ASC_NODE = 183.5788
ARG_OF_PERICENTER = 9.3531
MEAN_ANOMALY   = 350.7990

EPHEMERIS_TYPE = 0
CLASSIFICATION_TYPE = U
NORAD_CAT_ID   = 11267
ELEMENT_SET_NO = 999
REV_AT_EPOCH   = 51510
BSTAR          = .88341896E-4
MEAN_MOTION_DOT = .917E-5
MEAN_MOTION_DDOT = 0

CCSDS_OMM_VERS = 2.0
CREATION_DATE  = 
ORIGINATOR     = 

OBJECT_NAME    = SL-8 R/B
OBJECT_ID      = 1979-089B
CENTER_NAME    = EARTH
REF_FRAME      = TEME
TIME_SYSTEM    = UTC
MEAN_ELEMENT_THEORY = SGP/SGP4

EPOCH          = 2025-12-07T21:52:36.503904
MEAN_MOTION    = 14.42278372
ECCENTRICITY   = .00144349
INCLINATION    = 74.0693
RA_OF_ASC_NODE = 260.9148
ARG_OF_PERICENTER = 97.4040
MEAN_ANOMALY   = 262.8758

EPHEMERIS_TYPE = 0
CLASSIFICATION_TYPE = U
NORAD_CAT_ID   = 11574
ELEMENT_SET_NO = 999
REV_AT_EPOCH   = 42287
BSTAR          = .16914872E-3
MEAN_MOTION_DOT = .532E-5
MEAN_MOTION_DDOT = 0

CCSDS_OMM_VERS = 2.0
CREATION_DATE  = 
ORIGINATOR     = 

OBJECT_NAME    = SL-14 R/B
OBJECT_ID      = 1980-005B
CENTER_NAME    = EARTH
REF_FRAME      = TEME
TIME_SYSTEM    = UTC
MEAN_ELEMENT_THEORY = SGP/SGP4

EPOCH          = 2025-12-07T15:25:46.927200
MEAN_MOTION    = 14.90783077
ECCENTRICITY   = .00172501
INCLINATION    = 82.5154
RA_OF_ASC_NODE = 34.5331
ARG_OF_PERICENTER = 108.9488
MEAN_ANOMALY   = 251.3602

EPHEMERIS_TYPE = 0
CLASSIFICATION_TYPE = U
NORAD_CAT_ID   = 11672
ELEMENT_SET_NO = 999
REV_AT_EPOCH   = 46277
BSTAR          = .10679961E-3
MEAN_MOTION_DOT = .1078E-4
MEAN_MOTION_DDOT = 0

CCSDS_OMM_VERS = 2.0
CREATION_DATE  = 
ORIGINATOR     = 

OBJECT_NAME    = SL-8 R/B
OBJECT_ID      = 1981-003B
CENTER_NAME    = EARTH
REF_FRAME      = TEME
TIME_SYSTEM    = UTC
MEAN_ELEMENT_THEORY = SGP/SGP4

EPOCH          = 2025-12-07T19:46:14.602368
MEAN_MOTION    = 15.06831805
ECCENTRICITY   = .02803092
INCLINATION    = 82.9281
RA_OF_ASC_NODE = 14.7279
ARG_OF_PERICENTER = 137.1481
MEAN_ANOMALY   = 225.1974

EPHEMERIS_TYPE = 0
CLASSIFICATION_TYPE = U
NORAD_CAT_ID   = 12139
ELEMENT_SET_NO = 999
REV_AT_EPOCH   = 30082
BSTAR          = .65512843E-3
MEAN_MOTION_DOT = .24641E-3
MEAN_MOTION_DDOT = 0

CCSDS_OMM_VERS = 2.0
CREATION_DATE  = 
ORIGINATOR     = 

OBJECT_NAME    = SL-3 R/B
OBJECT_ID      = 1981-046B
CENTER_NAME    = EARTH
REF_FRAME      = TEME
TIME_SYSTEM    = UTC
MEAN_ELEMENT_THEORY = SGP/SGP4

EPOCH          = 2025-12-07T22:47:36.704832
MEAN_MOTION    = 15.39461941
ECCENTRICITY   = .00192156
INCLINATION    = 81.2331
RA_OF_ASC_NODE = 39.6676
ARG_OF_PERICENTER = 341.3817
MEAN_ANOMALY   = 18.6719

EPHEMERIS_TYPE = 0
CLASSIFICATION_TYPE = U
NORAD_CAT_ID   = 12465
ELEMENT_SET_NO = 999
REV_AT_EPOCH   = 42430
BSTAR          = .3389951E-3
MEAN_MOTION_DOT = .13407E-3
MEAN_MOTION_DDOT = 0

CCSDS_OMM_VERS = 2.0
CREATION_DATE  = 
ORIGINATOR     = 

OBJECT_NAME    = SL-3 R/B
OBJECT_ID      = 1981-103B
CENTER_NAME    = EARTH
REF_FRAME      = TEME
TIME_SYSTEM    = UTC
MEAN_ELEMENT_THEORY = SGP/SGP4

EPOCH          = 2025-12-07T23:40:49.265184
MEAN_MOTION    = 15.20143641
ECCENTRICITY   = .00113373
INCLINATION    = 81.1589
RA_OF_ASC_NODE = 320.9199
ARG_OF_PERICENTER = 231.4228
MEAN_ANOMALY   = 128.5988

EPHEMERIS_TYPE = 0
CLASSIFICATION_TYPE = U
NORAD_CAT_ID   = 12904
ELEMENT_SET_NO = 999
REV_AT_EPOCH   = 95929
BSTAR          = .35883533E-3
MEAN_MOTION_DOT = .7798E-4
MEAN_MOTION_DDOT = 0

CCSDS_OMM_VERS = 2.0
CREATION_DATE  = 
ORIGINATOR     = 

OBJECT_NAME    = SL-3 R/B
OBJECT_ID      = 1982-013B
CENTER_NAME    = EARTH
REF_FRAME      = TEME
TIME_SYSTEM    = UTC
MEAN_ELEMENT_THEORY = SGP/SGP4

EPOCH          = 2025-12-07T21:45:58.225824
MEAN_MOTION    = 15.21016036
ECCENTRICITY   = .00238737
INCLINATION    = 81.1752
RA_OF_ASC_NODE = 268.2654
ARG_OF_PERICENTER = 126.1525
MEAN_ANOMALY   = 234.1920

EPHEMERIS_TYPE = 0
CLASSIFICATION_TYPE = U
NORAD_CAT_ID   = 13068
ELEMENT_SET_NO = 999
REV_AT_EPOCH   = 39039
BSTAR          = .25411208E-3
MEAN_MOTION_DOT = .5705E-4
MEAN_MOTION_DDOT = 0

CCSDS_OMM_VERS = 2.0
CREATION_DATE  = 
ORIGINATOR     = 

OBJECT_NAME    = SL-3 R/B
OBJECT_ID      = 1982-039B
CENTER_NAME    = EARTH
REF_FRAME      = TEME
TIME_SYSTEM    = UTC
MEAN_ELEMENT_THEORY = SGP/SGP4

EPOCH          = 2025-12-07T22:23:22.034688
MEAN_MOTION    = 15.09480843
ECCENTRICITY   = .00299702
INCLINATION    = 81.1729
RA_OF_ASC_NODE = 321.6263
ARG_OF_PERICENTER = 268.6590
MEAN_ANOMALY   = 91.1201

EPHEMERIS_TYPE = 0
CLASSIFICATION_TYPE = U
NORAD_CAT_ID   = 13154
ELEMENT_SET_NO = 999
REV_AT_EPOCH   = 36779
BSTAR          = .26518091E-3
MEAN_MOTION_DOT = .4313E-4
MEAN_MOTION_DDOT = 0

